From: horizons@ssd.jpl.nasa.gov (Horizons Ephemeris System)
Subject: [Horizons] SMALL BODY #C(500@10)_T(217P/LINEAR) (1/1)
Date: March 1, 2021 at 1:23:02 PM PST

Automated mail xmit by MAIL_REQUEST, PID= 2301 Mon Mar  1 13:23:02 2021
++++++++++++++++++++++++++++++++ (part 1 of 1)  +++++++++++++++++++++++++++++++
*******************************************************************************
JPL/HORIZONS                     217P/LINEAR               2021-Mar-01 13:23:01
Rec #:90001128 (+COV) Soln.date: 2020-Nov-11_11:13:12   # obs: 3268 (2001-2018)

IAU76/J2000 helio. ecliptic osc. elements (au, days, deg., period=Julian yrs):

 EPOCH=  2455413.5 ! 2010-Aug-05.0000000 (TDB)    RMSW= n.a.
  EC= .6896124637729237   QR= 1.224234455487031   TP= 2455083.4848305634
  OM= 125.6209128541173   W= 246.7641705041978    IN= 12.88038133656731
  A= 3.944212678022593    MA= 41.52383817591134   ADIST= 6.664190900558155
  PER= 7.8333711007209    N= .125824025           ANGMOM= .024740433
  DAN= 2.84157            DDN= 1.62608            L= 11.8511231
  B= -11.81986            MOID= .30751899         TP= 2009-Sep-08.9848305634

Comet physical (GM= km^3/s^2; RAD= km):
  GM= n.a.                RAD= n.a.
  M1=  14.      M2=  n.a.     k1=  6.5    k2= n.a.     PHCOF= n.a.

Comet non-gravitational force model (AMRAT=m^2/kg;A1-A3=au/d^2;DT=days;R0=au):
  AMRAT=  0.                                      DT=  22.14165
  A1= 1.599083095789E-9   A2= -1.222525537014E-10 A3= 2.914599317592E-12
Standard model:
  ALN=  .1112620426   NK=  4.6142   NM=  2.15     NN=  5.093    R0=  2.808

COMET comments 
1: soln ref.= JPL#129, data arc: 2001-06-21 to 2018-03-21
2: k1=6.5;
*******************************************************************************


*******************************************************************************
Ephemeris / MAIL_REQUEST Mon Mar  1 13:23:01 2021 Pasadena, USA  / Horizons
*******************************************************************************
Target body name: 217P/LINEAR                     {source: JPL#129}
Center body name: Sun (10)                        {source: DE431}
Center-site name: BODY CENTER
*******************************************************************************
Start time      : A.D. 1990-Jan-01 00:00:00.0000 TDB
Stop  time      : A.D. 2020-Dec-31 00:00:00.0000 TDB
Step-size       : 10080 minutes
*******************************************************************************
Center geodetic : 0.00000000,0.00000000,0.0000000 {E-lon(deg),Lat(deg),Alt(km)}
Center cylindric: 0.00000000,0.00000000,0.0000000 {E-lon(deg),Dxy(km),Dz(km)}
Center radii    : 696000.0 x 696000.0 x 696000.0 k{Equator, meridian, pole}    
Small perturbers: Yes                             {source: SB431-N16}
Output units    : AU-D
Output type     : GEOMETRIC cartesian states
Output format   : 6 (LT, range, and range-rate)
Reference frame : Ecliptic of J2000.0
*******************************************************************************
Initial IAU76/J2000 heliocentric ecliptic osculating elements (au, days, deg.):
 EPOCH=  2455413.5 ! 2010-Aug-05.0000000 (TDB)    RMSW= n.a.                  
  EC= .6896124637729237   QR= 1.224234455487031   TP= 2455083.4848305634      
  OM= 125.6209128541173   W= 246.7641705041978    IN= 12.88038133656731       
 Equivalent ICRF heliocentric equatorial cartesian coordinates (au, au/d):
  X=-2.608450611692866E+00  Y= 2.058046812111314E+00  Z= 1.084058724879764E+00
 VX=-9.495447131100994E-03 VY=-1.481093054602725E-03 VZ= 1.398182306305106E-03
Comet physical (GM= km^3/s^2; RAD= km):                                        
  GM= n.a.                RAD= n.a.                                           
  M1=  14.      M2=  n.a.     k1=  6.5    k2= n.a.     PHCOF= n.a.            
Comet non-gravitational force model (AMRAT=m^2/kg;A1-A3=au/d^2;DT=days;R0=au): 
  AMRAT=  0.                                      DT=  22.14165               
  A1= 1.599083095789E-9   A2= -1.222525537014E-10 A3= 2.914599317592E-12      
Standard model:                                                               
  ALN=  .1112620426   NK=  4.6142   NM=  2.15     NN=  5.093    R0=  2.808    
*******************************************************************************
           JDTDB,            Calendar Date (TDB),                     LT,                     RG,                     RR,
**************************************************************************************************************************
$$SOE
2450972.500000000, A.D. 1998-Jun-08 00:00:00.0000,  3.826245232186090E-02,  6.624938252484241E+00, -8.044520962997922E-04,
2450979.500000000, A.D. 1998-Jun-15 00:00:00.0000,  3.822928082825643E-02,  6.619194786408839E+00, -8.365455101928483E-04,
2450986.500000000, A.D. 1998-Jun-22 00:00:00.0000,  3.819481094514292E-02,  6.613226511158825E+00, -8.686834975739849E-04,
2450993.500000000, A.D. 1998-Jun-29 00:00:00.0000,  3.815904085326886E-02,  6.607033111740568E+00, -9.008668105948733E-04,
2451000.500000000, A.D. 1998-Jul-06 00:00:00.0000,  3.812196870116346E-02,  6.600614267581835E+00, -9.330965318491400E-04,
2451007.500000000, A.D. 1998-Jul-13 00:00:00.0000,  3.808359257827768E-02,  6.593969647881314E+00, -9.653744385473673E-04,
2451014.500000000, A.D. 1998-Jul-20 00:00:00.0000,  3.804391049532060E-02,  6.587098908203963E+00, -9.977025914756478E-04,
2451021.500000000, A.D. 1998-Jul-27 00:00:00.0000,  3.800292037814765E-02,  6.580001689422776E+00, -1.030083104975657E-03,
2451028.500000000, A.D. 1998-Aug-03 00:00:00.0000,  3.796062006769352E-02,  6.572677617707193E+00, -1.062518055710945E-03,
2451035.500000000, A.D. 1998-Aug-10 00:00:00.0000,  3.791700732257075E-02,  6.565126304972995E+00, -1.095009431980284E-03,
2451042.500000000, A.D. 1998-Aug-17 00:00:00.0000,  3.787207982348494E-02,  6.557347349646810E+00, -1.127559095141366E-03,
2451049.500000000, A.D. 1998-Aug-24 00:00:00.0000,  3.782583517818416E-02,  6.549340337523055E+00, -1.160168815626638E-03,
2451056.500000000, A.D. 1998-Aug-31 00:00:00.0000,  3.777827091900572E-02,  6.541104841339182E+00, -1.192840677624109E-03,
2451063.500000000, A.D. 1998-Sep-07 00:00:00.0000,  3.772938447179097E-02,  6.532640415393436E+00, -1.225577989272392E-03,
2451070.500000000, A.D. 1998-Sep-14 00:00:00.0000,  3.767917311192756E-02,  6.523946587933811E+00, -1.258384434797108E-03,
2451077.500000000, A.D. 1998-Sep-21 00:00:00.0000,  3.762763400651772E-02,  6.515022868459265E+00, -1.291261500920567E-03,
2451084.500000000, A.D. 1998-Sep-28 00:00:00.0000,  3.757476429146063E-02,  6.505868761066114E+00, -1.324209676645996E-03,
2451091.500000000, A.D. 1998-Oct-05 00:00:00.0000,  3.752056107184937E-02,  6.496483764516762E+00, -1.357230068882595E-03,
2451098.500000000, A.D. 1998-Oct-12 00:00:00.0000,  3.746502139695695E-02,  6.486867367908668E+00, -1.390324262379390E-03,
2451105.500000000, A.D. 1998-Oct-19 00:00:00.0000,  3.740814224818050E-02,  6.477019048586944E+00, -1.423493994826595E-03,
2451112.500000000, A.D. 1998-Oct-26 00:00:00.0000,  3.734992053598632E-02,  6.466938271615417E+00, -1.456741026076930E-03,
2451119.500000000, A.D. 1998-Nov-02 00:00:00.0000,  3.729035310004000E-02,  6.456624489799147E+00, -1.490067094045031E-03,
2451126.500000000, A.D. 1998-Nov-09 00:00:00.0000,  3.722943671062701E-02,  6.446077143930392E+00, -1.523473889052020E-03,
2451133.500000000, A.D. 1998-Nov-16 00:00:00.0000,  3.716716807090742E-02,  6.435295663179019E+00, -1.556963044786423E-03,
2451140.500000000, A.D. 1998-Nov-23 00:00:00.0000,  3.710354381733482E-02,  6.424279465165019E+00, -1.590536282662819E-03,
2451147.500000000, A.D. 1998-Nov-30 00:00:00.0000,  3.703856050452441E-02,  6.413027953338505E+00, -1.624196106649444E-03,
2451154.500000000, A.D. 1998-Dec-07 00:00:00.0000,  3.697221455554868E-02,  6.401540508373679E+00, -1.657946463092907E-03,
2451161.500000000, A.D. 1998-Dec-14 00:00:00.0000,  3.690450223653355E-02,  6.389816483770283E+00, -1.691790620527904E-03,
2451168.500000000, A.D. 1998-Dec-21 00:00:00.0000,  3.683541972698152E-02,  6.377855218029683E+00, -1.725729786827446E-03,
2451175.500000000, A.D. 1998-Dec-28 00:00:00.0000,  3.676496316402267E-02,  6.365656042316682E+00, -1.759765168721001E-03,
2451182.500000000, A.D. 1999-Jan-04 00:00:00.0000,  3.669312862036515E-02,  6.353218276641779E+00, -1.793898716862101E-03,
2451189.500000000, A.D. 1999-Jan-11 00:00:00.0000,  3.661991208054889E-02,  6.340541225749614E+00, -1.828132782790321E-03,
2451196.500000000, A.D. 1999-Jan-18 00:00:00.0000,  3.654530943045672E-02,  6.327624177302881E+00, -1.862469870212428E-03,
2451203.500000000, A.D. 1999-Jan-25 00:00:00.0000,  3.646931645349487E-02,  6.314466401220998E+00, -1.896912534309245E-03,
2451210.500000000, A.D. 1999-Feb-01 00:00:00.0000,  3.639192882962983E-02,  6.301067149513355E+00, -1.931463329323231E-03,
2451217.500000000, A.D. 1999-Feb-08 00:00:00.0000,  3.631314213635491E-02,  6.287425656446652E+00, -1.966124763524695E-03,
2451224.500000000, A.D. 1999-Feb-15 00:00:00.0000,  3.623295185093970E-02,  6.273541138934391E+00, -2.000899298018338E-03,
2451231.500000000, A.D. 1999-Feb-22 00:00:00.0000,  3.615135334817038E-02,  6.259412796145630E+00, -2.035789642696678E-03,
2451238.500000000, A.D. 1999-Mar-01 00:00:00.0000,  3.606834187296425E-02,  6.245039804763317E+00, -2.070799687108194E-03,
2451245.500000000, A.D. 1999-Mar-08 00:00:00.0000,  3.598391248693818E-02,  6.230421309732923E+00, -2.105934271698964E-03,
2451252.500000000, A.D. 1999-Mar-15 00:00:00.0000,  3.589806008510844E-02,  6.215556427153911E+00, -2.141196436678026E-03,
2451259.500000000, A.D. 1999-Mar-22 00:00:00.0000,  3.581077947639711E-02,  6.200444258219004E+00, -2.176587798528891E-03,
2451266.500000000, A.D. 1999-Mar-29 00:00:00.0000,  3.572206539826785E-02,  6.185083891748278E+00, -2.212110417904721E-03,
2451273.500000000, A.D. 1999-Apr-05 00:00:00.0000,  3.563191249299109E-02,  6.169474400079618E+00, -2.247766880472527E-03,
